INTERCOSMOS 24          
1 20261U 89080A   25239.24879627  .00001379  00000+0  40189-3 0  9996
2 20261  82.6016 230.8483 1190145  23.9805 341.2305 12.59154433642324
SL-14 R/B               
1 20262U 89080C   25239.11694949  .00000232  00000+0  70358-4 0  9994
2 20262  82.5943 298.1361 1229624 269.5197  76.5245 12.50330902635839
DELTA 1 R/B             
1 20323U 89089B   25239.09491984  .00000330  00000+0  90564-4 0  9992
2 20323  97.0928 112.3107 0069872  18.5953 341.7775 14.50442876867528
ARIANE 40 R/B           
1 20443U 90005H   25239.15718094  .00000256  00000+0  95389-4 0  9993
2 20443  98.3402 300.2881 0011281  73.1656 287.0769 14.39679700864816
DELTA 2 R/B(1)          
1 20453U 90008B   25238.52579753  .00027735  00000+0  56890-3 0  9998
2 20453  35.6101 354.4668 0129337 275.4431  83.1557 15.36491455895935
COSMOS 2058             
1 20465U 90010A   25239.26340654  .00003817  00000+0  23782-3 0  9991
2 20465  82.4725 238.6139 0007427 275.9341  84.1041 15.09280636912897
SL-14 R/B               
1 20466U 90010B   25239.08780673  .00000389  00000+0  44560-4 0  9990
2 20466  82.4996  90.1298 0018905 217.9089 142.0797 14.83312952899639
SL-14 R/B               
1 20511U 90018B   25239.18885646  .00000456  00000+0  54594-4 0  9999
2 20511  82.5199  44.8640 0016794  17.1030 343.0747 14.81895380893779
HST                     
1 20580U 90037B   25239.28175207  .00006442  00000+0  23501-3 0  9996
2 20580  28.4677 282.7682 0002466 140.7816 219.2958 15.26031468743557
SL-16 R/B               
1 20625U 90046B   25239.00948848 -.00000230  00000+0 -93929-4 0  9998
2 20625  71.0018 346.7628 0016311 244.7348 115.2085 14.14973426820850
COSMOS 2084             
1 20663U 90055A   25239.09447044  .00002204  00000+0  16908-3 0  9993
2 20663  62.7892 278.4985 0049649 162.0828 198.2037 15.04048868907038
SL-6 R/B(2)             
1 20666U 90055D   25239.16278721  .00002123  00000+0  17439-3 0  9998
2 20666  62.7821 194.7179 0015882 216.2489 143.7535 15.02296320908951
SL-8 R/B                
1 20775U 90078B   25238.90885537  .00009382  00000+0  30814-3 0  9990
2 20775  82.9047  65.3500 0393103 305.4157  51.0929 14.80348927780395
SL-8 R/B                
1 21088U 91006B   25239.16951418  .00000055  00000+0  40349-4 0  9994
2 21088  82.9445 314.7553 0021721 217.0479 178.3643 13.77469553737294
OKEAN-3                 
1 21397U 91039A   25239.20563315  .00004094  00000+0  30092-3 0  9993
2 21397  82.5203 165.0389 0012761 274.6381  85.3387 15.03129713835804
COSMOS 2151             
1 21422U 91042A   25239.24466292  .00001658  00000+0  13428-3 0  9993
2 21422  82.4941 271.0467 0012436   4.7418 355.3920 14.99063700834054
SL-14 R/B               
1 21423U 91042B   25239.20170738  .00000506  00000+0  61252-4 0  9997
2 21423  82.4919  42.5417 0017684 155.7890 204.4159 14.81593424824270
ERS-1                   
1 21574U 91050A   25239.26224858  .00000314  00000+0  11545-3 0  9998
2 21574  98.7941 247.5893 0033122  60.1548 300.2924 14.39240300787763
ARIANE 40 R/B           
1 21610U 91050F   25239.08165796  .00000304  00000+0  10398-3 0  9998
2 21610  98.2335 293.3018 0002098 321.2027  38.9012 14.42682525790934
INTERCOSMOS 25          
1 21819U 91086A   25238.94961814  .00002302  00000+0  45148-3 0  9998
2 21819  82.5999  67.6859 1489764 176.5342 184.7611 12.11205017473106
SL-8 R/B                
1 21876U 92008B   25239.22442100 -.00000026  00000+0 -42171-4 0  9997
2 21876  82.9238  52.3955 0033849 319.5376 214.1403 13.75938230682673
SL-8 R/B                
1 21938U 92020B   25239.10210344  .00000031  00000+0  15556-4 0  9991
2 21938  82.9301 298.2770 0030353 119.9167 252.5578 13.75519315674383
USA 81                  
1 21949U 92023A   25238.95870408  .00000166  00000+0  54342-4 0  9996
2 21949  85.0032 243.7351 0001338  75.2696 284.8645 14.32264285 66916
COSMOS 2219             
1 22219U 92076A   25238.91708730  .00000329  00000+0  19741-3 0  9993
2 22219  71.0590  65.2181 0017023 142.5264 217.7049 14.14036297690844
SL-16 R/B               
1 22220U 92076B   25239.25219678  .00000267  00000+0  15695-3 0  9996
2 22220  70.9975 237.9403 0011903  21.9956 348.9411 14.16814998694292
COSMOS 2221             
1 22236U 92080A   25238.88835706  .00001627  00000+0  14574-3 0  9998
2 22236  82.5027 105.4957 0015776 123.3908 236.8825 14.95103300751670
SL-16 R/B               
1 22285U 92093B   25239.18180578 -.00000061  00000+0 -67361-5 0  9997
2 22285  71.0208  52.5767 0006311 252.7562 107.2870 14.15403682685638
COSMOS 2228             
1 22286U 92094A   25239.22882642  .00002095  00000+0  18420-3 0  9992
2 22286  82.5152  63.3291 0017209 234.3965 125.5654 14.95965046746970
SL-16 R/B               
1 22566U 93016B   25239.06147221 -.00000320  00000+0 -13966-3 0  9998
2 22566  71.0038 263.9483 0012616 261.7776  98.1916 14.15263982674630
COSMOS 2242             
1 22626U 93024A   25238.99760899  .00001648  00000+0  14657-3 0  9997
2 22626  82.5165  92.7599 0015297 237.8817 122.0920 14.95410202751285
SL-16 R/B               
1 22803U 93059B   25238.95225150 -.00000024  00000+0  11658-4 0  9991
2 22803  70.9897  61.7766 0015958 153.7300 206.4637 14.17187685651948
ARIANE 40 R/B           
1 22830U 93061H   25239.14058023  .00000208  00000+0  92384-4 0  9997
2 22830  98.5214 306.5558 0011617 136.3906 223.8198 14.32696652666243
COSMOS 2278             
1 23087U 94023A   25239.24455995 -.00000189  00000+0 -73860-4 0  9999
2 23087  71.0518 221.8938 0010715 314.6575  45.3673 14.14315944617314
SL-16 R/B               
1 23088U 94023B   25239.09787363 -.00000250  00000+0 -10475-3 0  9991
2 23088  70.9996 119.5394 0005410 249.4569 110.5974 14.14977615618562
SL-16 R/B               
1 23343U 94074B   25239.04339237  .00000457  00000+0  68369-4 0  9992
2 23343  97.7350 272.5347 0007775 127.8533 254.2665 14.79108982658472
SL-16 R/B               
1 23405U 94077B   25239.15539690 -.00000122  00000+0 -38126-4 0  9990
2 23405  70.9827  41.7395 0000540 144.2994 215.8165 14.15525429588704
ARIANE 40+ R/B          
1 23561U 95021B   25239.21654690  .00000304  00000+0  11138-3 0  9991
2 23561  98.4783 308.0356 0006836  14.9729  46.2662 14.39575611591269
SL-16 R/B               
1 23705U 95058B   25239.22342963  .00000332  00000+0  19425-3 0  9997
2 23705  71.0189 228.5223 0010865  49.7181 310.4890 14.15457913540339
SL-16 R/B               
1 24298U 96051B   25239.26377146 -.00000206  00000+0 -84817-4 0  9994
2 24298  70.7607 226.7488 0013170  56.9308 303.3074 14.12396924494192
ORBVIEW 2 (SEASTAR)     
1 24883U 97037A   25239.14538360  .00000299  00000+0  12049-3 0  9990
2 24883  98.8361  33.5790 0001162 274.1161  85.9891 14.35295045480562
SL-16 R/B               
1 25400U 98043G   25239.09415820  .00000074  00000+0  49736-4 0  9998
2 25400  98.7920 186.4243 0009146 213.8612 146.1985 14.25986008411259
SL-16 R/B               
1 25407U 98045B   25239.25899434 -.00000248  00000+0 -10126-3 0  9997
2 25407  71.0086 230.4445 0009206 310.1246  49.9070 14.16149436399579
ISS (ZARYA)             
1 25544U 98067A   25239.23760054  .00012044  00000+0  21699-3 0  9998
2 25544  51.6344 314.9180 0003276 277.8648  82.1969 15.50220949526185
CZ-4B R/B               
1 25732U 99025C   25239.08297810  .00000061  00000+0  50219-4 0  9997
2 25732  98.6941 282.6653 0037130 182.8019 206.4690 14.18205854360580
OKEAN-O                 
1 25860U 99039A   25239.09086600  .00000655  00000+0  93715-4 0  9995
2 25860  97.9772 295.6355 0000908 109.0702 251.0608 14.79897971405604
SL-16 R/B               
1 25861U 99039B   25239.19097829  .00000614  00000+0  85352-4 0  9995
2 25861  98.0299 293.2411 0015298 163.4794 196.6919 14.81361006408061
DELTA 2 R/B             
1 25876U 99041E   25239.06763157  .00002731  00000+0  47827-3 0  9990
2 25876  51.7634 358.0894 0506483 134.3159 230.0476 14.11017548335549
HELIOS 1B               
1 25977U 99064A   25239.13588623  .00001452  00000+0  17002-3 0  9999
2 25977  98.1840 130.6334 0001515  43.7951 316.3383 14.86668276656348
TERRA                   
1 25994U 99068A   25239.26809362  .00000486  00000+0  10876-3 0  9990
2 25994  97.9920 294.7957 0003631  84.3960 340.7977 14.60772696366698
SL-16 R/B               
1 26070U 00006B   25239.15347334  .00000097  00000+0  73660-4 0  9993
2 26070  71.0024 146.8670 0014659 121.7218 238.5336 14.15782380321027
TITAN 4B R/B            
1 26474U 00047B   25239.23925832  .00003803  00000+0  25154-3 0  9992
2 26474  67.9885 226.4857 0048146 260.6457  98.9246 15.07586350363588
ENVISAT                 
1 27386U 02009A   25238.84730845  .00000108  00000+0  48904-4 0  9993
2 27386  98.3395 192.4387 0001174  86.3492 326.6090 14.38939505231159
IDEFIX & ARIANE 42P R/B 
1 27422U 02021B   25239.24601685  .00000297  00000+0  12988-3 0  9993
2 27422  98.5620 175.4376 0012797  44.0328 316.1872 14.30832249216215
AQUA                    
1 27424U 02022A   25239.22098190  .00001009  00000+0  21370-3 0  9992
2 27424  98.3842 198.4922 0001519 108.8374   8.2405 14.61425283240323
CZ-4B R/B               
1 27432U 02024C   25238.98721691  .00000038  00000+0  42552-4 0  9991
2 27432  98.9175 288.0311 0049639 214.7791 209.3360 14.14497443201719
MIDORI II (ADEOS-II)    
1 27597U 02056A   25239.10779442  .00000276  00000+0  12682-3 0  9994
2 27597  98.7432 191.6164 0001054 136.0087 224.1178 14.29092509182500
H-2A R/B                
1 27601U 02056E   25239.18824712  .00000417  00000+0  16098-3 0  9991
2 27601  98.2862 202.3375 0071030  22.2791 348.6453 14.33553747186245
CZ-4B R/B               
1 28059U 03049C   25239.23510221  .00000455  00000+0  11629-3 0  9992
2 28059  98.6666 221.7974 0049562 104.7725 255.8970 14.54739179158326
CZ-2C R/B               
1 28222U 04012C   25239.06016287  .00024128  00000+0  47328-3 0  9997
2 28222  97.7598 283.4411 0019951 301.6364  58.2938 15.47132449174034
